{
  "type": "FeatureCollection",
  "features": [
    {
      "type": "Feature",
      "properties": {
        "norad_id": 33913,
        "name": "COSMOS 2251 DEB",
        "group": "cosmos-2251-debris",
        "lat": -8.897890661236737,
        "lon": -162.30024637354862,
        "alt_km": 710.8401340531218,
        "timestamp": "2025-12-03T20:47:58.618614+00:00",
        "meta_object_name": "COSMOS 2251 DEB",
        "meta_object_id": "1993-036DS",
        "meta_epoch": "2025-12-02T16:55:27.076800",
        "meta_mean_motion": 14.48421393,
        "meta_eccentricity": 0.00481477,
        "meta_inclination": 74.0338,
        "meta_ra_of_asc_node": 202.4437,
        "meta_arg_of_pericenter": 306.8387,
        "meta_mean_anomaly": 109.7655,
        "meta_ephemeris_type": 0,
        "meta_classification_type": "U",
        "meta_norad_cat_id": 33913,
        "meta_element_set_no": 999,
        "meta_rev_at_epoch": 88312,
        "meta_bstar": 0.0007120172,
        "meta_mean_motion_dot": 2.679e-05,
        "meta_mean_motion_ddot": 0,
        "tle_line1": "1 33913U 93036DS  25336.70517450  .00002679  00000+0  71202-3 0  9996",
        "tle_line2": "2 33913  74.0338 202.4437 0048147 306.8387 109.7655 14.48421393883121"
      },
      "geometry": {
        "type": "Point",
        "coordinates": [
          -162.30024637354862,
          -8.897890661236737
        ]
      }
    },
    {
      "type": "Feature",
      "properties": {
        "norad_id": 33914,
        "name": "COSMOS 2251 DEB",
        "group": "cosmos-2251-debris",
        "lat": -57.36310337953803,
        "lon": -123.83954164595129,
        "alt_km": 1054.9962026454232,
        "timestamp": "2025-12-03T20:47:58.618625+00:00",
        "meta_object_name": "COSMOS 2251 DEB",
        "meta_object_id": "1993-036DT",
        "meta_epoch": "2025-12-03T10:59:28.334112",
        "meta_mean_motion": 13.71969642,
        "meta_eccentricity": 0.0301988,
        "meta_inclination": 74.0917,
        "meta_ra_of_asc_node": 30.3909,
        "meta_arg_of_pericenter": 135.6589,
        "meta_mean_anomaly": 244.3055,
        "meta_ephemeris_type": 0,
        "meta_classification_type": "U",
        "meta_norad_cat_id": 33914,
        "meta_element_set_no": 999,
        "meta_rev_at_epoch": 83954,
        "meta_bstar": 0.00089065,
        "meta_mean_motion_dot": 1.099e-05,
        "meta_mean_motion_ddot": 0,
        "tle_line1": "1 33914U 93036DT  25337.45796683  .00001099  00000+0  89065-3 0  9998",
        "tle_line2": "2 33914  74.0917  30.3909 0301988 135.6589 244.3055 13.71969642839540"
      },
      "geometry": {
        "type": "Point",
        "coordinates": [
          -123.83954164595129,
          -57.36310337953803
        ]
      }
    },
    {
      "type": "Feature",
      "properties": {
        "norad_id": 33915,
        "name": "COSMOS 2251 DEB",
        "group": "cosmos-2251-debris",
        "lat": 32.685803484483884,
        "lon": -140.2088503918894,
        "alt_km": 697.4957923697621,
        "timestamp": "2025-12-03T20:47:58.618635+00:00",
        "meta_object_name": "COSMOS 2251 DEB",
        "meta_object_id": "1993-036DU",
        "meta_epoch": "2025-12-03T05:12:49.713120",
        "meta_mean_motion": 14.35042449,
        "meta_eccentricity": 0.0104971,
        "meta_inclination": 74.045,
        "meta_ra_of_asc_node": 51.5578,
        "meta_arg_of_pericenter": 146.5997,
        "meta_mean_anomaly": 245.5282,
        "meta_ephemeris_type": 0,
        "meta_classification_type": "U",
        "meta_norad_cat_id": 33915,
        "meta_element_set_no": 999,
        "meta_rev_at_epoch": 87621,
        "meta_bstar": 0.00074207,
        "meta_mean_motion_dot": 2.226e-05,
        "meta_mean_motion_ddot": 0,
        "tle_line1": "1 33915U 93036DU  25337.21724205  .00002226  00000+0  74207-3 0  9999",
        "tle_line2": "2 33915  74.0450  51.5578 0104971 146.5997 245.5282 14.35042449876215"
      },
      "geometry": {
        "type": "Point",
        "coordinates": [
          -140.2088503918894,
          32.685803484483884
        ]
      }
    },
    {
      "type": "Feature",
      "properties": {
        "norad_id": 33916,
        "name": "COSMOS 2251 DEB",
        "group": "cosmos-2251-debris",
        "lat": -66.59255984676895,
        "lon": -83.49567564449275,
        "alt_km": 789.7628477111075,
        "timestamp": "2025-12-03T20:47:58.618646+00:00",
        "meta_object_name": "COSMOS 2251 DEB",
        "meta_object_id": "1993-036DV",
        "meta_epoch": "2025-12-03T07:38:19.491360",
        "meta_mean_motion": 13.68595075,
        "meta_eccentricity": 0.0325505,
        "meta_inclination": 74.0531,
        "meta_ra_of_asc_node": 56.0685,
        "meta_arg_of_pericenter": 230.2106,
        "meta_mean_anomaly": 200.1845,
        "meta_ephemeris_type": 0,
        "meta_classification_type": "U",
        "meta_norad_cat_id": 33916,
        "meta_element_set_no": 999,
        "meta_rev_at_epoch": 83762,
        "meta_bstar": 0.00082282,
        "meta_mean_motion_dot": 9.98e-06,
        "meta_mean_motion_ddot": 0,
        "tle_line1": "1 33916U 93036DV  25337.31828115  .00000998  00000+0  82282-3 0  9992",
        "tle_line2": "2 33916  74.0531  56.0685 0325505 230.2106 200.1845 13.68595075837623"
      },
      "geometry": {
        "type": "Point",
        "coordinates": [
          -83.49567564449275,
          -66.59255984676895
        ]
      }
    },
    {
      "type": "Feature",
      "properties": {
        "norad_id": 33917,
        "name": "COSMOS 2251 DEB",
        "group": "cosmos-2251-debris",
        "lat": -50.27148093012443,
        "lon": 116.89221375076019,
        "alt_km": 906.7558562072263,
        "timestamp": "2025-12-03T20:47:58.618657+00:00",
        "meta_object_name": "COSMOS 2251 DEB",
        "meta_object_id": "1993-036DW",
        "meta_epoch": "2025-12-03T10:32:20.259168",
        "meta_mean_motion": 13.69336465,
        "meta_eccentricity": 0.0331052,
        "meta_inclination": 74.106,
        "meta_ra_of_asc_node": 137.6428,
        "meta_arg_of_pericenter": 240.6376,
        "meta_mean_anomaly": 116.1306,
        "meta_ephemeris_type": 0,
        "meta_classification_type": "U",
        "meta_norad_cat_id": 33917,
        "meta_element_set_no": 999,
        "meta_rev_at_epoch": 83606,
        "meta_bstar": 0.0010378,
        "meta_mean_motion_dot": 1.301e-05,
        "meta_mean_motion_ddot": 0,
        "tle_line1": "1 33917U 93036DW  25337.43912337  .00001301  00000+0  10378-2 0  9991",
        "tle_line2": "2 33917  74.1060 137.6428 0331052 240.6376 116.1306 13.69336465836063"
      },
      "geometry": {
        "type": "Point",
        "coordinates": [
          116.89221375076019,
          -50.27148093012443
        ]
      }
    },
    {
      "type": "Feature",
      "properties": {
        "norad_id": 33920,
        "name": "COSMOS 2251 DEB",
        "group": "cosmos-2251-debris",
        "lat": 65.948494270701,
        "lon": -4.90208226737497,
        "alt_km": 701.5544007707449,
        "timestamp": "2025-12-03T20:47:58.618668+00:00",
        "meta_object_name": "COSMOS 2251 DEB",
        "meta_object_id": "1993-036DZ",
        "meta_epoch": "2025-12-02T04:56:58.153632",
        "meta_mean_motion": 14.57956923,
        "meta_eccentricity": 0.0038561,
        "meta_inclination": 74.0624,
        "meta_ra_of_asc_node": 318.4379,
        "meta_arg_of_pericenter": 326.615,
        "meta_mean_anomaly": 33.2583,
        "meta_ephemeris_type": 0,
        "meta_classification_type": "U",
        "meta_norad_cat_id": 33920,
        "meta_element_set_no": 999,
        "meta_rev_at_epoch": 87961,
        "meta_bstar": 0.0024879,
        "meta_mean_motion_dot": 0.00011527,
        "meta_mean_motion_ddot": 0,
        "tle_line1": "1 33920U 93036DZ  25336.20622863  .00011527  00000+0  24879-2 0  9993",
        "tle_line2": "2 33920  74.0624 318.4379 0038561 326.6150  33.2583 14.57956923879619"
      },
      "geometry": {
        "type": "Point",
        "coordinates": [
          -4.90208226737497,
          65.948494270701
        ]
      }
    },
    {
      "type": "Feature",
      "properties": {
        "norad_id": 33922,
        "name": "COSMOS 2251 DEB",
        "group": "cosmos-2251-debris",
        "lat": 47.66206094380967,
        "lon": -33.8987995569203,
        "alt_km": 736.5682586002358,
        "timestamp": "2025-12-03T20:47:58.618679+00:00",
        "meta_object_name": "COSMOS 2251 DEB",
        "meta_object_id": "1993-036EB",
        "meta_epoch": "2025-12-03T12:02:56.526432",
        "meta_mean_motion": 14.4945455,
        "meta_eccentricity": 0.0023266,
        "meta_inclination": 74.0458,
        "meta_ra_of_asc_node": 165.083,
        "meta_arg_of_pericenter": 276.6993,
        "meta_mean_anomaly": 111.37,
        "meta_ephemeris_type": 0,
        "meta_classification_type": "U",
        "meta_norad_cat_id": 33922,
        "meta_element_set_no": 999,
        "meta_rev_at_epoch": 88444,
        "meta_bstar": 0.00054243,
        "meta_mean_motion_dot": 2.057e-05,
        "meta_mean_motion_ddot": 0,
        "tle_line1": "1 33922U 93036EB  25337.50204313  .00002057  00000+0  54243-3 0  9992",
        "tle_line2": "2 33922  74.0458 165.0830 0023266 276.6993 111.3700 14.49454550884445"
      },
      "geometry": {
        "type": "Point",
        "coordinates": [
          -33.8987995569203,
          47.66206094380967
        ]
      }
    }
  ]
}